ONEWEB-0033             
1 45142U 20008M   26112.23550528 -.00000563  00000+0 -16482-2 0  9996
2 45142  87.8845  47.4113 0001993  63.2249 296.9082 13.10374373300883
ONEWEB-0035             
1 45143U 20008N   26112.26623102  .00000707  00000+0  19876-2 0  9997
2 45143  87.8839  47.4035 0001937  75.5259 284.6083 13.10373260300615
ONEWEB-0036             
1 45144U 20008P   26112.28466394  .00000380  00000+0  10614-2 0  9996
2 45144  87.8854  47.3870 0002026  90.0951 270.0409 13.09815176301044
ONEWEB-0038             
1 45145U 20008Q   26112.24335498  .00000115  00000+0  28751-3 0  9991
2 45145  87.8933  32.1912 0003554  73.9202 286.2317 13.11415564302990
ONEWEB-0039             
1 45146U 20008R   26112.23881588 -.00000074  00000+0 -24768-3 0  9997
2 45146  87.8847  47.3989 0002097  92.7884 267.3484 13.10372254300836
ONEWEB-0040             
1 45147U 20008S   26112.23217348 -.00000589  00000+0 -17229-2 0  9999
2 45147  87.8845  47.4134 0002017  79.4190 280.7164 13.10373135300532
ONEWEB-0043             
1 45149U 20008U   26112.23382760 -.00000525  00000+0 -15410-2 0  9992
2 45149  87.8856  47.3980 0002113  94.2844 265.8525 13.10372839300852
ONEWEB-0044             
1 45150U 20008V   26112.26208853  .00000706  00000+0  19870-2 0  9990
2 45150  87.8855  47.3900 0002062  83.2483 276.8879 13.10374640301155
ONEWEB-0045             
1 45151U 20008W   26112.23813114  .00000375  00000+0  10217-2 0  9998
2 45151  87.8928  32.1779 0001943  80.8768 279.2580 13.11415488303075
ONEWEB-0047             
1 45152U 20008X   26112.25543372  .00000392  00000+0  10855-2 0  9994
2 45152  87.8854  47.3917 0002012  74.2643 285.8706 13.10375371300876
ONEWEB-0048             
1 45153U 20008Y   26112.25044645  .00000197  00000+0  52740-3 0  9997
2 45153  87.8848  47.4176 0001951  76.7881 283.3464 13.10376973300480
ONEWEB-0049             
1 45154U 20008Z   26112.25363797  .00000344  00000+0  94796-3 0  9991
2 45154  87.8850  47.4051 0001578  87.5616 272.5692 13.10375586300704
ONEWEB-0051             
1 45155U 20008AA  26112.23640530 -.00003746  00000+0 -10606-1 0  9990
2 45155  87.8919  32.1896 0001894  79.6622 280.4720 13.11433545303758
ONEWEB-0052             
1 45156U 20008AB  26112.27453348  .00000582  00000+0  16322-2 0  9999
2 45156  87.8843  47.3870 0001596  93.4654 266.6656 13.10370265300617
ONEWEB-0053             
1 45157U 20008AC  26112.23051934 -.00000664  00000+0 -19379-2 0  9999
2 45157  87.8844  47.4185 0001936  94.6414 265.4935 13.10373006300583
ONEWEB-0054             
1 45158U 20008AD  26112.26539476  .00000720  00000+0  20265-2 0  9992
2 45158  87.8852  47.3896 0001833  79.2028 280.9306 13.10372659300708
