[{"OBJECT_NAME":"ONEWEB-0033","OBJECT_ID":"2020-008M","EPOCH":"2026-04-22T05:39:07.656192","MEAN_MOTION":13.10374373,"ECCENTRICITY":0.0001993,"INCLINATION":87.8845,"RA_OF_ASC_NODE":47.4113,"ARG_OF_PERICENTER":63.2249,"MEAN_ANOMALY":296.9082,"EPHEMERIS_TYPE":0,"CLASSIFICATION_TYPE":"U","NORAD_CAT_ID":45142,"ELEMENT_SET_NO":999,"REV_AT_EPOCH":30088,"BSTAR":-0.0016482,"MEAN_MOTION_DOT":-5.63e-06,"MEAN_MOTION_DDOT":0.0},{"OBJECT_NAME":"ONEWEB-0035","OBJECT_ID":"2020-008N","EPOCH":"2026-04-22T06:23:22.360128","MEAN_MOTION":13.1037326,"ECCENTRICITY":0.0001937,"INCLINATION":87.8839,"RA_OF_ASC_NODE":47.4035,"ARG_OF_PERICENTER":75.5259,"MEAN_ANOMALY":284.6083,"EPHEMERIS_TYPE":0,"CLASSIFICATION_TYPE":"U","NORAD_CAT_ID":45143,"ELEMENT_SET_NO":999,"REV_AT_EPOCH":30061,"BSTAR":0.0019876,"MEAN_MOTION_DOT":7.07e-06,"MEAN_MOTION_DDOT":0.0},{"OBJECT_NAME":"ONEWEB-0036","OBJECT_ID":"2020-008P","EPOCH":"2026-04-22T06:49:54.964416","MEAN_MOTION":13.09815176,"ECCENTRICITY":0.0002026,"INCLINATION":87.8854,"RA_OF_ASC_NODE":47.387,"ARG_OF_PERICENTER":90.0951,"MEAN_ANOMALY":270.0409,"EPHEMERIS_TYPE":0,"CLASSIFICATION_TYPE":"U","NORAD_CAT_ID":45144,"ELEMENT_SET_NO":999,"REV_AT_EPOCH":30104,"BSTAR":0.0010614,"MEAN_MOTION_DOT":3.8e-06,"MEAN_MOTION_DDOT":0.0},{"OBJECT_NAME":"ONEWEB-0038","OBJECT_ID":"2020-008Q","EPOCH":"2026-04-22T05:50:25.870272","MEAN_MOTION":13.11415564,"ECCENTRICITY":0.0003554,"INCLINATION":87.8933,"RA_OF_ASC_NODE":32.1912,"ARG_OF_PERICENTER":73.9202,"MEAN_ANOMALY":286.2317,"EPHEMERIS_TYPE":0,"CLASSIFICATION_TYPE":"U","NORAD_CAT_ID":45145,"ELEMENT_SET_NO":999,"REV_AT_EPOCH":30299,"BSTAR":0.00028751,"MEAN_MOTION_DOT":1.15e-06,"MEAN_MOTION_DDOT":0.0},{"OBJECT_NAME":"ONEWEB-0039","OBJECT_ID":"2020-008R","EPOCH":"2026-04-22T05:43:53.692032","MEAN_MOTION":13.10372254,"ECCENTRICITY":0.0002097,"INCLINATION":87.8847,"RA_OF_ASC_NODE":47.3989,"ARG_OF_PERICENTER":92.7884,"MEAN_ANOMALY":267.3484,"EPHEMERIS_TYPE":0,"CLASSIFICATION_TYPE":"U","NORAD_CAT_ID":45146,"ELEMENT_SET_NO":999,"REV_AT_EPOCH":30083,"BSTAR":-0.00024768,"MEAN_MOTION_DOT":-7.4e-07,"MEAN_MOTION_DDOT":0.0},{"OBJECT_NAME":"ONEWEB-0040","OBJECT_ID":"2020-008S","EPOCH":"2026-04-22T05:34:19.788672","MEAN_MOTION":13.10373135,"ECCENTRICITY":0.0002017,"INCLINATION":87.8845,"RA_OF_ASC_NODE":47.4134,"ARG_OF_PERICENTER":79.419,"MEAN_ANOMALY":280.7164,"EPHEMERIS_TYPE":0,"CLASSIFICATION_TYPE":"U","NORAD_CAT_ID":45147,"ELEMENT_SET_NO":999,"REV_AT_EPOCH":30053,"BSTAR":-0.0017229,"MEAN_MOTION_DOT":-5.89e-06,"MEAN_MOTION_DDOT":0.0},{"OBJECT_NAME":"ONEWEB-0043","OBJECT_ID":"2020-008U","EPOCH":"2026-04-22T05:36:42.704640","MEAN_MOTION":13.10372839,"ECCENTRICITY":0.0002113,"INCLINATION":87.8856,"RA_OF_ASC_NODE":47.398,"ARG_OF_PERICENTER":94.2844,"MEAN_ANOMALY":265.8525,"EPHEMERIS_TYPE":0,"CLASSIFICATION_TYPE":"U","NORAD_CAT_ID":45149,"ELEMENT_SET_NO":999,"REV_AT_EPOCH":30085,"BSTAR":-0.0015409999999999998,"MEAN_MOTION_DOT":-5.25e-06,"MEAN_MOTION_DDOT":0.0},{"OBJECT_NAME":"ONEWEB-0044","OBJECT_ID":"2020-008V","EPOCH":"2026-04-22T06:17:24.448992","MEAN_MOTION":13.1037464,"ECCENTRICITY":0.0002062,"INCLINATION":87.8855,"RA_OF_ASC_NODE":47.39,"ARG_OF_PERICENTER":83.2483,"MEAN_ANOMALY":276.8879,"EPHEMERIS_TYPE":0,"CLASSIFICATION_TYPE":"U","NORAD_CAT_ID":45150,"ELEMENT_SET_NO":999,"REV_AT_EPOCH":30115,"BSTAR":0.001987,"MEAN_MOTION_DOT":7.06e-06,"MEAN_MOTION_DDOT":0.0},{"OBJECT_NAME":"ONEWEB-0045","OBJECT_ID":"2020-008W","EPOCH":"2026-04-22T05:42:54.530496","MEAN_MOTION":13.11415488,"ECCENTRICITY":0.0001943,"INCLINATION":87.8928,"RA_OF_ASC_NODE":32.1779,"ARG_OF_PERICENTER":80.8768,"MEAN_ANOMALY":279.258,"EPHEMERIS_TYPE":0,"CLASSIFICATION_TYPE":"U","NORAD_CAT_ID":45151,"ELEMENT_SET_NO":999,"REV_AT_EPOCH":30307,"BSTAR":0.0010217,"MEAN_MOTION_DOT":3.75e-06,"MEAN_MOTION_DDOT":0.0},{"OBJECT_NAME":"ONEWEB-0047","OBJECT_ID":"2020-008X","EPOCH":"2026-04-22T06:07:49.473408","MEAN_MOTION":13.10375371,"ECCENTRICITY":0.0002012,"INCLINATION":87.8854,"RA_OF_ASC_NODE":47.3917,"ARG_OF_PERICENTER":74.2643,"MEAN_ANOMALY":285.8706,"EPHEMERIS_TYPE":0,"CLASSIFICATION_TYPE":"U","NORAD_CAT_ID":45152,"ELEMENT_SET_NO":999,"REV_AT_EPOCH":30087,"BSTAR":0.0010854999999999999,"MEAN_MOTION_DOT":3.92e-06,"MEAN_MOTION_DDOT":0.0},{"OBJECT_NAME":"ONEWEB-0048","OBJECT_ID":"2020-008Y","EPOCH":"2026-04-22T06:00:38.573280","MEAN_MOTION":13.10376973,"ECCENTRICITY":0.0001951,"INCLINATION":87.8848,"RA_OF_ASC_NODE":47.4176,"ARG_OF_PERICENTER":76.7881,"MEAN_ANOMALY":283.3464,"EPHEMERIS_TYPE":0,"CLASSIFICATION_TYPE":"U","NORAD_CAT_ID":45153,"ELEMENT_SET_NO":999,"REV_AT_EPOCH":30048,"BSTAR":0.0005274,"MEAN_MOTION_DOT":1.97e-06,"MEAN_MOTION_DDOT":0.0},{"OBJECT_NAME":"ONEWEB-0049","OBJECT_ID":"2020-008Z","EPOCH":"2026-04-22T06:05:14.320608","MEAN_MOTION":13.10375586,"ECCENTRICITY":0.0001578,"INCLINATION":87.885,"RA_OF_ASC_NODE":47.4051,"ARG_OF_PERICENTER":87.5616,"MEAN_ANOMALY":272.5692,"EPHEMERIS_TYPE":0,"CLASSIFICATION_TYPE":"U","NORAD_CAT_ID":45154,"ELEMENT_SET_NO":999,"REV_AT_EPOCH":30070,"BSTAR":0.0009479600000000001,"MEAN_MOTION_DOT":3.44e-06,"MEAN_MOTION_DDOT":0.0},{"OBJECT_NAME":"ONEWEB-0051","OBJECT_ID":"2020-008AA","EPOCH":"2026-04-22T05:40:25.417920","MEAN_MOTION":13.11433545,"ECCENTRICITY":0.0001894,"INCLINATION":87.8919,"RA_OF_ASC_NODE":32.1896,"ARG_OF_PERICENTER":79.6622,"MEAN_ANOMALY":280.472,"EPHEMERIS_TYPE":0,"CLASSIFICATION_TYPE":"U","NORAD_CAT_ID":45155,"ELEMENT_SET_NO":999,"REV_AT_EPOCH":30375,"BSTAR":-0.010606,"MEAN_MOTION_DOT":-3.746e-05,"MEAN_MOTION_DDOT":0.0},{"OBJECT_NAME":"ONEWEB-0052","OBJECT_ID":"2020-008AB","EPOCH":"2026-04-22T06:35:19.692672","MEAN_MOTION":13.10370265,"ECCENTRICITY":0.0001596,"INCLINATION":87.8843,"RA_OF_ASC_NODE":47.387,"ARG_OF_PERICENTER":93.4654,"MEAN_ANOMALY":266.6656,"EPHEMERIS_TYPE":0,"CLASSIFICATION_TYPE":"U","NORAD_CAT_ID":45156,"ELEMENT_SET_NO":999,"REV_AT_EPOCH":30061,"BSTAR":0.0016322,"MEAN_MOTION_DOT":5.82e-06,"MEAN_MOTION_DDOT":0.0},{"OBJECT_NAME":"ONEWEB-0053","OBJECT_ID":"2020-008AC","EPOCH":"2026-04-22T05:31:56.870976","MEAN_MOTION":13.10373006,"ECCENTRICITY":0.0001936,"INCLINATION":87.8844,"RA_OF_ASC_NODE":47.4185,"ARG_OF_PERICENTER":94.6414,"MEAN_ANOMALY":265.4935,"EPHEMERIS_TYPE":0,"CLASSIFICATION_TYPE":"U","NORAD_CAT_ID":45157,"ELEMENT_SET_NO":999,"REV_AT_EPOCH":30058,"BSTAR":-0.0019379,"MEAN_MOTION_DOT":-6.64e-06,"MEAN_MOTION_DDOT":0.0},{"OBJECT_NAME":"ONEWEB-0054","OBJECT_ID":"2020-008AD","EPOCH":"2026-04-22T06:22:10.107264","MEAN_MOTION":13.10372659,"ECCENTRICITY":0.0001833,"INCLINATION":87.8852,"RA_OF_ASC_NODE":47.3896,"ARG_OF_PERICENTER":79.2028,"MEAN_ANOMALY":280.9306,"EPHEMERIS_TYPE":0,"CLASSIFICATION_TYPE":"U","NORAD_CAT_ID":45158,"ELEMENT_SET_NO":999,"REV_AT_EPOCH":30070,"BSTAR":0.0020265,"MEAN_MOTION_DOT":7.2e-06,"MEAN_MOTION_DDOT":0.0}]